OBJECT_NAME,OBJECT_ID,EPOCH,MEAN_MOTION,ECCENTRICITY,INCLINATION,RA_OF_ASC_NODE,ARG_OF_PERICENTER,MEAN_ANOMALY,EPHEMERIS_TYPE,CLASSIFICATION_TYPE,NORAD_CAT_ID,ELEMENT_SET_NO,REV_AT_EPOCH,BSTAR,MEAN_MOTION_DOT,MEAN_MOTION_DDOT
STARLINK-31633,2024-057M,2026-07-19T14:50:11.716224,15.27577521,.00016372,43.0036,162.1968,277.8133,82.2533,0,U,59331,999,13001,.36363719E-4,.738E-5,0
STARLINK-31594,2024-057N,2026-07-19T08:18:44.320320,15.27575655,.00012755,43.0005,174.8431,270.9686,89.1020,0,U,59332,999,12984,.6356496E-5,-.87E-6,0
STARLINK-31572,2024-057P,2026-07-19T06:48:16.924608,15.27579363,.00011688,43.0012,175.2302,268.4044,91.6674,0,U,59333,999,12983,.26122353E-4,.457E-5,0
STARLINK-31573,2024-057Q,2026-07-19T05:52:48.323136,15.27587251,.00014337,43.0016,163.6913,270.8439,89.2249,0,U,59334,999,12996,.76051563E-4,.1832E-4,0
STARLINK-31588,2024-057R,2026-07-19T06:02:03.451776,15.27578669,.00011766,43.0011,163.7425,269.3324,90.7393,0,U,59335,999,12996,.7227784E-5,-.63E-6,0
STARLINK-31596,2024-057S,2026-07-19T06:07:36.396768,15.27578316,.00009152,43.0008,163.7721,282.3424,77.7325,0,U,59336,999,12996,.28112169E-4,.512E-5,0
STARLINK-31612,2024-057T,2026-07-19T14:31:44.285088,15.27546177,.00006798,43.0021,162.1031,270.1438,89.9336,0,U,59337,999,13001,-.12405657E-3,-.367E-4,0
STARLINK-31550,2024-057U,2026-07-19T07:17:55.240512,15.27578054,.00012935,43.0017,164.1403,269.1976,90.8727,0,U,59338,999,12996,.18081466E-4,.235E-5,0
STARLINK-31473,2024-057V,2026-07-19T14:15:03.055104,15.27557456,.00005011,43.0008,162.0114,264.3858,95.6936,0,U,59339,999,13001,.14643706E-3,.3767E-4,0
STARLINK-31562,2024-057W,2026-07-19T08:42:06.129216,15.27577771,.00010018,43.0009,178.4389,283.7740,76.3000,0,U,59340,999,12980,-.7295573E-5,-.463E-5,0
STARLINK-31600,2024-057X,2026-07-19T06:30:28.993824,15.27578578,.00010086,43.0005,171.6766,267.1735,92.9001,0,U,59341,999,12987,-.8144413E-5,-.486E-5,0
STARLINK-31628,2024-057Y,2026-07-19T06:53:51.850752,15.27578552,.00011293,43.0030,164.0174,278.7275,81.3449,0,U,59342,999,12996,.33463945E-4,.659E-5,0
STARLINK-31605,2024-060A,2026-07-19T10:15:08.822880,15.27579595,.00005558,42.9971,225.2111,322.8235,37.2578,0,U,59348,999,13027,-.2565296E-5,-.332E-5,0
STARLINK-31532,2024-060B,2026-07-19T09:12:10.965600,15.27578460,.00012872,43.0005,236.1256,279.2914,80.7792,0,U,59349,999,13025,.45178226E-4,.981E-5,0
STARLINK-31593,2024-060C,2026-07-19T10:03:46.770912,15.27578015,.00012473,43.0028,235.5353,274.2028,85.8681,0,U,59350,999,13021,.18110134E-4,.236E-5,0
STARLINK-31555,2024-060D,2026-07-19T09:23:17.251296,15.27568952,.00013616,42.9998,236.1810,275.6136,84.4561,0,U,59351,999,13025,.36243253E-4,.735E-5,0
STARLINK-31561,2024-060E,2026-07-19T03:43:27.087168,15.27576086,.00017015,43.0037,236.9932,279.0411,81.0249,0,U,59352,999,13017,.2440063E-4,.409E-5,0
STARLINK-31413,2024-060F,2026-07-19T08:46:18.723072,15.27554065,.00016709,43.0034,235.9949,271.4626,88.6035,0,U,59353,999,13020,-.84432531E-4,-.2583E-4,0
STARLINK-31422,2024-060G,2026-07-19T09:54:44.328384,15.27583838,.0001242,43.0023,236.3455,271.4117,88.6592,0,U,59354,999,13020,.37712928E-4,.776E-5,0
STARLINK-31416,2024-060H,2026-07-19T09:17:43.893312,15.27575678,.00012716,43.0003,236.1519,279.0703,81.0005,0,U,59355,999,13020,.7641585E-5,-.52E-6,0
STARLINK-31552,2024-060J,2026-07-19T09:49:11.396352,15.27576798,.00011307,43.0012,236.3316,277.0718,83.0005,0,U,59356,999,13020,.24486858E-4,.412E-5,0
STARLINK-31557,2024-060K,2026-07-19T03:23:47.480928,15.27576743,.00012678,43.0026,233.3914,280.6683,79.4025,0,U,59357,999,13021,.29098791E-4,.539E-5,0
STARLINK-31559,2024-060L,2026-07-19T04:14:54.431232,15.27575948,.00020001,43.0014,237.1567,274.9608,85.1015,0,U,59358,999,13017,.30649531E-4,.581E-5,0
STARLINK-31501,2024-060M,2026-07-19T09:38:05.299872,15.27585248,.00011963,42.9997,236.2616,291.7583,68.3142,0,U,59359,999,13020,-.1597239E-4,-.702E-5,0
STARLINK-31549,2024-060N,2026-07-19T10:14:54.477888,15.27593093,.00016604,43.0034,235.5942,260.5605,99.5059,0,U,59360,999,13021,-.21644797E-3,-.6216E-4,0
STARLINK-31560,2024-060P,2026-07-19T11:02:59.455104,15.27576959,.00012324,42.9997,235.8381,283.1007,76.9707,0,U,59361,999,13021,.28538054E-4,.523E-5,0
STARLINK-31571,2024-060Q,2026-07-19T03:15:54.402048,15.27576899,.00012019,42.9989,237.7025,270.4114,89.6599,0,U,59362,999,13016,.1725762E-5,-.215E-5,0
STARLINK-31553,2024-060R,2026-07-19T03:00:38.883456,15.27574722,.00012136,43.0007,230.6936,277.9705,82.1009,0,U,59363,999,13024,-.1868747E-5,-.313E-5,0
STARLINK-31547,2024-060S,2026-07-19T10:33:24.895872,15.27588569,.00012375,43.0008,224.4368,280.3476,79.7236,0,U,59364,999,13034,.30699933E-4,.583E-5,0
STARLINK-31537,2024-060T,2026-07-19T03:27:00.856224,15.27577929,.00015797,43.0018,237.7615,274.3749,85.6922,0,U,59365,999,13016,.902462E-6,-.237E-5,0
