STARLINK-31633          
1 59331U 24057M   26200.61819116  .00000738  00000+0  36364-4 0  9995
2 59331  43.0036 162.1968 0001637 277.8133  82.2533 15.27577521130010
STARLINK-31594          
1 59332U 24057N   26200.34634630 -.00000087  00000+0  63565-5 0  9994
2 59332  43.0005 174.8431 0001275 270.9686  89.1020 15.27575655129849
STARLINK-31572          
1 59333U 24057P   26200.28352922  .00000457  00000+0  26122-4 0  9996
2 59333  43.0012 175.2302 0001168 268.4044  91.6674 15.27579363129833
STARLINK-31573          
1 59334U 24057Q   26200.24500374  .00001832  00000+0  76052-4 0  9994
2 59334  43.0016 163.6913 0001433 270.8439  89.2249 15.27587251129967
STARLINK-31588          
1 59335U 24057R   26200.25142884 -.00000063  00000+0  72278-5 0  9997
2 59335  43.0011 163.7425 0001176 269.3324  90.7393 15.27578669129962
STARLINK-31596          
1 59336U 24057S   26200.25528237  .00000512  00000+0  28112-4 0  9993
2 59336  43.0008 163.7721 0000915 282.3424  77.7325 15.27578316129963
STARLINK-31612          
1 59337U 24057T   26200.60537367 -.00003670  00000+0 -12406-3 0  9995
2 59337  43.0021 162.1031 0000679 270.1438  89.9336 15.27546177130018
STARLINK-31550          
1 59338U 24057U   26200.30411158  .00000235  00000+0  18081-4 0  9990
2 59338  43.0017 164.1403 0001293 269.1976  90.8727 15.27578054129963
STARLINK-31473          
1 59339U 24057V   26200.59378536  .00003767  00000+0  14644-3 0  9997
2 59339  43.0008 162.0114 0000501 264.3858  95.6936 15.27557456130013
STARLINK-31562          
1 59340U 24057W   26200.36257094 -.00000463  00000+0 -72956-5 0  9993
2 59340  43.0009 178.4389 0001001 283.7740  76.3000 15.27577771129807
STARLINK-31600          
1 59341U 24057X   26200.27116891 -.00000486  00000+0 -81444-5 0  9990
2 59341  43.0005 171.6766 0001008 267.1735  92.9001 15.27578578129873
STARLINK-31628          
1 59342U 24057Y   26200.28740568  .00000659  00000+0  33464-4 0  9994
2 59342  43.0030 164.0174 0001129 278.7275  81.3449 15.27578552129962
STARLINK-31605          
1 59348U 24060A   26200.42718545 -.00000332  00000+0 -25653-5 0  9992
2 59348  42.9971 225.2111 0000555 322.8235  37.2578 15.27579595130277
STARLINK-31532          
1 59349U 24060B   26200.38346025  .00000981  00000+0  45178-4 0  9999
2 59349  43.0005 236.1256 0001287 279.2914  80.7792 15.27578460130250
STARLINK-31593          
1 59350U 24060C   26200.41929133  .00000236  00000+0  18110-4 0  9991
2 59350  43.0028 235.5353 0001247 274.2028  85.8681 15.27578015130210
STARLINK-31555          
1 59351U 24060D   26200.39117189  .00000735  00000+0  36243-4 0  9990
2 59351  42.9998 236.1810 0001361 275.6136  84.4561 15.27568952130257
STARLINK-31561          
1 59352U 24060E   26200.15517462  .00000409  00000+0  24401-4 0  9994
2 59352  43.0037 236.9932 0001701 279.0411  81.0249 15.27576086130173
STARLINK-31413          
1 59353U 24060F   26200.36549448 -.00002583  00000+0 -84433-4 0  9995
2 59353  43.0034 235.9949 0001670 271.4626  88.6035 15.27554065130200
STARLINK-31422          
1 59354U 24060G   26200.41301306  .00000776  00000+0  37713-4 0  9990
2 59354  43.0023 236.3455 0001242 271.4117  88.6592 15.27583838130204
STARLINK-31416          
1 59355U 24060H   26200.38731358 -.00000052  00000+0  76416-5 0  9993
2 59355  43.0003 236.1519 0001271 279.0703  81.0005 15.27575678130208
STARLINK-31552          
1 59356U 24060J   26200.40915968  .00000412  00000+0  24487-4 0  9997
2 59356  43.0012 236.3316 0001130 277.0718  83.0005 15.27576798130200
STARLINK-31557          
1 59357U 24060K   26200.14152177  .00000539  00000+0  29099-4 0  9998
2 59357  43.0026 233.3914 0001267 280.6683  79.4025 15.27576743130211
STARLINK-31559          
1 59358U 24060L   26200.17701888  .00000581  00000+0  30650-4 0  9993
2 59358  43.0014 237.1567 0002000 274.9608  85.1015 15.27575948130178
STARLINK-31501          
1 59359U 24060M   26200.40145023 -.00000702  00000+0 -15972-4 0  9990
2 59359  42.9997 236.2616 0001196 291.7583  68.3142 15.27585248130208
STARLINK-31549          
1 59360U 24060N   26200.42701942 -.00006216  00000+0 -21645-3 0  9991
2 59360  43.0034 235.5942 0001660 260.5605  99.5059 15.27593093130214
STARLINK-31560          
1 59361U 24060P   26200.46041036  .00000523  00000+0  28538-4 0  9999
2 59361  42.9997 235.8381 0001232 283.1007  76.9707 15.27576959130214
STARLINK-31571          
1 59362U 24060Q   26200.13604632 -.00000215  00000+0  17258-5 0  9998
2 59362  42.9989 237.7025 0001201 270.4114  89.6599 15.27576899130163
STARLINK-31553          
1 59363U 24060R   26200.12545004 -.00000313  00000+0 -18687-5 0  9992
2 59363  43.0007 230.6936 0001213 277.9705  82.1009 15.27574722130247
STARLINK-31547          
1 59364U 24060S   26200.43987148  .00000583  00000+0  30700-4 0  9992
2 59364  43.0008 224.4368 0001237 280.3476  79.7236 15.27588569130347
STARLINK-31537          
1 59365U 24060T   26200.14375991 -.00000237  00000+0  90246-6 0  9998
2 59365  43.0018 237.7615 0001579 274.3749  85.6922 15.27577929130162
